[{"OBJECT_NAME":"STARLINK-31241","OBJECT_ID":"2024-038Y","EPOCH":"2026-03-09T06:50:17.272032","MEAN_MOTION":15.27585159,"ECCENTRICITY":0.00016136,"INCLINATION":43.003,"RA_OF_ASC_NODE":26.0795,"ARG_OF_PERICENTER":256.1109,"MEAN_ANOMALY":103.9563,"EPHEMERIS_TYPE":0,"CLASSIFICATION_TYPE":"U","NORAD_CAT_ID":59045,"ELEMENT_SET_NO":999,"REV_AT_EPOCH":11479,"BSTAR":4.3845794e-5,"MEAN_MOTION_DOT":9.45e-6,"MEAN_MOTION_DDOT":0},{"OBJECT_NAME":"VSP RF C1","OBJECT_ID":"2024-043AQ","EPOCH":"2026-03-09T21:56:05.358624","MEAN_MOTION":15.29409663,"ECCENTRICITY":0.00093965,"INCLINATION":97.5441,"RA_OF_ASC_NODE":205.1792,"ARG_OF_PERICENTER":219.6172,"MEAN_ANOMALY":140.4382,"EPHEMERIS_TYPE":0,"CLASSIFICATION_TYPE":"U","NORAD_CAT_ID":59136,"ELEMENT_SET_NO":999,"REV_AT_EPOCH":11190,"BSTAR":0.00026222052,"MEAN_MOTION_DOT":7.409e-5,"MEAN_MOTION_DDOT":0}]
